QIANFAN-33              
1 61566U 24185Q   25296.67701066  .00000624  00000+0  44228-3 0  9995
2 61566  88.9758  84.3839 0008670 116.2169 243.9900 13.96485248 62176
QIANFAN-34              
1 61567U 24185R   25296.63353741  .00000736  00000+0  47200-3 0  9992
2 61567  88.9743  84.0189 0007437 118.6237 241.5692 14.02238671 62332
QIANFAN-35              
1 61568U 24185S   25296.73212140  .00001279  00000+0  51128-3 0  9998
2 61568  88.9765  82.7436 0008749  91.3886 268.8311 14.27839065 63041
QIANFAN-36              
1 61569U 24185T   25296.69613897  .00000185  00000+0  24884-3 0  9992
2 61569  88.9743  86.2531 0006201 171.5306 188.5953 13.55567026 61146
QIANFAN-37              
1 62238U 24232B   25296.70275896  .00000191  00000+0  27701-3 0  9992
2 62238  89.0028  46.3691 0001395 125.5797 234.5485 13.50973665 92415
QIANFAN-38              
1 62239U 24232C   25296.72736880  .00000190  00000+0  27641-3 0  9992
2 62239  89.0035  46.2791 0013577 346.1793  13.8985 13.50982097 92474
QIANFAN-39              
1 62240U 24232D   25296.71983772  .00000892  00000+0  37266-3 0  9990
2 62240  89.0031  43.0177 0014516 237.3997 122.5796 14.25305700 94266
QIANFAN-40              
1 62241U 24232E   25296.76026075  .00000182  00000+0  26284-3 0  9990
2 62241  89.0063  45.8464 0012835 354.9788   5.1232 13.50981680 92844
